C/2021 O1 (Nishimura),e,27.5789,41.6090,74.4412,2504,0.0000079,0.99968582,0.0000,08/13.9323/2021,2000,g 10.5,4.0
# From MPEC 2022-L66
C/2021 O3 (PANSTARRS),h,04/21.0462/2022,56.7939,189.0186,299.9880,1.000104,0.287344,2000,10.5,4.0
# From MPEC 2022-CN4
C/2021 P1 (PANSTARRS),e,51.6364,359.6761,40.4281,3185,0.0000055,0.99862677,0.0000,06/02.1722/2022,2000,g 11.0,4.0
# From MPEC 2022-C56
C/2021 P2 (PANSTARRS),e,150.0573,32.0595,76.6155,4109,0.0000037,0.99876612,0.0000,01/22.2048/2023,2000,g  9.0,4.0
# From MPEC 2021-W31
P/2021 P3 (PANSTARRS),e,27.1616,358.2397,334.1236,4.414487,0.1062634,0.33952119,40.8599,06/19.0/2022,2000,g 14.0,4.0
# From MPEC 2022-L66
C/2021 P4 (ATLAS),e,56.3108,348.0944,175.8205,320.8195,0.0001715,0.99663219,0.0000,07/30.3699/2022,2000,g  9.5,4.0
# From MPEC 2022-GA9
C/2021 Q3 (ATLAS),e,77.7751,307.9044,114.0949,75.10342,0.0015143,0.93070109,0.2179,06/19.0/2022,2000,g  8.0,4.0
# From MPEC 2022-GA9
C/2021 Q4 (Fuls),h,06/09.5967/2023,71.4725,183.3343,146.9414,1.003336,7.565460,2000,6.0,4.0
# From MPEC 2022-C56
P/2021 Q5 (ATLAS),e,10.7347,239.7656,180.9024,3.286084,0.1654573,0.62434733,48.4048,06/19.0/2022,2000,g 15.0,4.0
# From MPEC 2022-C56
C/2021 Q6 (PANSTARRS),e,161.8473,133.5356,140.8542,7889,0.0000014,0.99889562,0.0000,03/22.2693/2024,2000,g  6.0,4.0
# From MPEC 2021-W31
P/2021 R1 (PANSTARRS),e,5.5203,143.3946,220.3507,8.385678,0.0405879,0.41734534,7.4393,06/19.0/2022,2000,g 11.0,4.0
# From MPEC 2022-L66
C/2021 R2 (PANSTARRS),e,134.4786,16.2916,32.3537,2658,0.0000072,0.99724921,0.0000,12/25.6930/2021,2000,g  7.5,4.0
# From MPEC 2021-W31
P/2021 R3 (PANSTARRS),e,19.9265,304.2183,2.8669,3.775147,0.1343703,0.33138734,52.2025,06/19.0/2022,2000,g 16.0,4.0
# From MPEC 2021-W31
P/2021 R4 (Wierzchos),e,21.0399,321.2562,56.6409,5.618112,0.0740148,0.58595311,18.3586,06/19.0/2022,2000,g 16.0,4.0
# From MPEC 2022-CN4
P/2021 R5 (Rankin),e,7.8546,219.9595,167.3806,4.793833,0.0939031,0.30687082,14.8181,06/19.0/2022,2000,g 12.0,4.0
# From MPEC 2021-W31
P/2021 R6 (Groeller),e,34.9270,176.1141,220.7408,6.274009,0.0627172,0.59319872,14.4296,06/19.0/2022,2000,g 14.5,4.0
# From MPEC 2022-L66
C/2021 R7 (PANSTARRS),e,158.8519,170.1435,140.2372,1337,0.0000202,0.99577579,0.0000,04/16.6331/2021,2000,g 10.5,4.0
# From MPEC 2021-Y10
P/2021 R8 (Sheppard),e,2.2034,167.0284,190.7675,3.016935,0.1880854,0.29362931,47.8799,06/19.0/2022,2000,g 18.5,4.0
# From MPEC 2022-L66
C/2021 S1 (ATLAS),h,02/28.8603/2022,52.0861,299.8754,148.1793,1.001178,6.119201,2000,7.0,4.0
# From MPEC 2022-J42
C/2021 S3 (PANSTARRS),e,58.5377,215.6330,6.9022,5982,0.0000021,0.99977951,0.0000,02/14.8177/2024,2000,g  5.5,4.0
# From MPEC 2022-ED3
C/2021 S4 (Tsuchinshan),e,17.4776,5.4944,72.7410,163.5074,0.0004714,0.95907041,359.7356,06/19.0/2022,2000,g  6.5,4.0
# From MPEC 2022-GA9
C/2021 T1 (Lemmon),e,140.3513,56.8343,51.5173,1275,0.0000217,0.99760091,0.0000,10/14.0582/2021,2000,g 12.5,4.0
# From MPEC 2022-ED3
C/2021 T2 (Fuls),h,06/07.8914/2022,117.5301,223.2323,263.5920,1.000202,1.247700,2000,12.0,4.0
# From MPEC 2022-ED3
C/2021 T4 (Lemmon),e,160.7548,257.7950,329.7841,14322,0.0000006,0.99989654,0.0000,07/31.5176/2023,2000,g  7.5,4.0
# From MPEC 2022-ED3
P/2021 U1 (Wierzchos),e,30.5588,246.7880,145.0593,8.513998,0.0396738,0.71280686,10.3542,06/19.0/2022,2000,g 14.5,4.0
# From MPEC 2022-L66
P/2021 U3 (Attard-Maury),e,69.9601,75.1109,335.2155,4.191935,0.1148371,0.54988376,27.2317,06/19.0/2022,2000,g 15.5,4.0
# From MPEC 2021-W31
C/2021 U4 (Leonard),e,152.8771,241.8132,237.2773,44.69734,0.0032982,0.96001201,0.5906,06/19.0/2022,2000,g 17.0,4.0
# From MPEC 2022-L66
C/2021 U5 (Catalina),e,39.0504,182.7550,321.4659,217.1479,0.0003080,0.98911699,0.0000,01/26.5993/2022,2000,g 13.0,4.0
# From MPEC 2022-CN4
C/2021 V1 (Rankin),e,71.4525,207.6527,195.1130,645.8998,0.0000600,0.99533451,0.0000,04/30.3939/2022,2000,g 13.0,4.0
# From MPEC 2022-HC2
P/2021 V2 (Fuls),e,12.6946,232.2897,259.8299,9.045001,0.0362319,0.61342247,352.1571,06/19.0/2022,2000,g 10.0,4.0
# From MPEC 2022-J42
C/2021 X1 (Maury-Attard),e,140.1213,10.5833,334.6098,672656,0.0000000,0.99999519,0.0000,05/27.4291/2023,2000,g  7.0,4.0
# From MPEC 2022-ED3
A/2021 X2,h,07/08.1588/2022,137.1437,228.7983,193.2849,1.001293,2.994511,2000,16.0,2.0
# From MPEC 2022-L66
C/2021 Y1 (ATLAS),h,04/30.7093/2023,77.1856,244.7703,245.8075,1.000712,2.032682,2000,7.0,4.0
# From MPEC 2022-ED3
C/2022 A1 (Sarneczky),e,116.5214,285.5229,201.1967,821.6325,0.0000418,0.99847514,0.0000,01/31.1531/2022,2000,g 18.0,4.0
# From MPEC 2022-L66
C/2022 A2 (PANSTARRS),h,02/18.2468/2023,108.1487,171.5801,88.3607,1.000569,1.735316,2000,9.5,4.0
# From MPEC 2022-K19
C/2022 A3 (Lemmon-ATLAS),e,88.3575,325.4831,234.8543,989.3119,0.0000317,0.99625698,0.0000,09/28.8271/2023,2000,g  8.0,4.0
# From MPEC 2022-K19
P/2022 B1 (Wierzchos),e,10.9909,148.8500,325.4788,5.464754,0.0771522,0.65292509,8.7695,06/19.0/2022,2000,g 16.5,4.0
# From MPEC 2022-K19
A/2022 B3,e,132.0566,286.1858,150.6964,931.3898,0.0000347,0.99602922,0.0000,01/17.6389/2022,2000,g 16.5,2.0
# From MPEC 2022-GA9
C/2022 B4 (Bok),e,20.0442,340.6615,152.9515,387.5399,0.0001292,0.99644008,0.0000,01/29.8918/2022,2000,g 21.0,4.0
# From MPEC 2022-H04
P/2022 C1 (PANSTARRS),e,4.7620,113.1463,9.3635,7.216663,0.0508393,0.44774325,11.5152,06/19.0/2022,2000,g 12.0,4.0
# From MPEC 2022-L66
P/2022 C2 (PANSTARRS),e,9.9799,135.2746,89.3002,6.047858,0.0662677,0.44269381,356.7793,06/19.0/2022,2000,g 12.5,4.0
# From MPEC 2022-L66
P/2022 C3 (PANSTARRS),e,12.8158,139.0593,93.9509,9.652433,0.0328662,0.54680171,359.5948,06/19.0/2022,2000,g 11.5,4.0
# From MPEC 2022-K19
P/2022 D1 (PANSTARRS),e,44.0664,47.9624,88.7062,7.400945,0.0489523,0.54702837,14.4387,06/19.0/2022,2000,g 12.5,4.0
# From MPEC 2022-K19
C/2022 D2 (Kowalski),e,22.6545,312.4692,177.7895,366.7226,0.0001403,0.99575935,0.0000,03/27.5734/2022,2000,g 17.0,4.0
# From MPEC 2022-L66
P/2022 E1 (Christensen),e,19.0036,113.3488,115.0953,3.782134,0.1339981,0.22124576,1.1230,06/19.0/2022,2000,g 13.5,4.0
# From MPEC 2022-L66
C/2022 E2 (ATLAS),h,09/13.7160/2024,137.1454,125.3518,41.6747,1.001547,3.665952,2000,5.0,4.0
# From MPEC 2022-L66
C/2022 E3 (ZTF),h,01/12.7970/2023,109.1678,302.5532,145.8162,1.000216,1.112272,2000,7.5,4.0
# From MPEC 2022-L66
C/2022 F1 (ATLAS),h,08/05.3096/2022,57.9710,350.6530,278.2853,1.000262,5.973892,2000,7.0,4.0
# From MPEC 2022-L66
C/2022 F2 (NEOWISE),e,97.2936,58.6947,200.6292,23.92716,0.0084211,0.93375689,0.7372,06/19.0/2022,2000,g 14.5,4.0
# From MPEC 2022-J76
C/2022 H1 (PANSTARRS),e,49.8921,6.3817,246.2587,1132,0.0000259,0.99320051,0.0000,01/19.0183/2024,2000,g  6.0,4.0
# From MPEC 2022-L66
C/2022 J1 (Maury-Attard),e,105.9341,280.7241,305.6763,48.04297,0.0029598,0.96660376,0.3550,06/19.0/2022,2000,g 14.9,4.0
# From MPEC 2022-L66
A/2022 J2,e,149.0855,252.5195,133.2730,83.28871,0.0012967,0.97812169,0.0000,10/27.3388/2022,2000,g 17.0,2.0
# From MPEC 2022-L53
C/2022 K1 (Leonard),e,42.0789,136.2453,143.7604,165.0890,0.0004647,0.97575909,0.0000,12/22.4867/2021,2000,g 11.0,4.0
# From MPEC 2022-L97
C/2022 L1 (Catalina),h,09/27.4846/2022,123.5508,300.0710,59.4771,1.013844,1.595844,2000,15.8,4.0
# From  98, 1083
1P/Halley,e,162.2047,59.1361,112.0604,17.87174,0.0130453,0.96642124,173.0874,06/19.0/2022,2000,g  4.0,6.0
# From MPEC 2022-K19
2P/Encke,e,11.5057,334.3169,187.0071,2.219540,0.2980641,0.84854360,214.1008,06/19.0/2022,2000,g 11.5,6.0
# From MPEC 2022-L66
4P/Faye,e,8.0086,192.9266,207.0188,3.824953,0.1317544,0.57673318,37.3038,06/19.0/2022,2000,g  8.0,6.0
# From MPEC 2022-L66
6P/d'Arrest,e,19.5122,138.9335,178.0843,3.497005,0.1507161,0.61265561,41.3348,06/19.0/2022,2000,g  7.5,16.0
# From MPEC 2021-Y10
7P/Pons-Winnecke,e,22.3655,93.3454,172.5709,3.411814,0.1563961,0.63849073,60.6701,06/19.0/2022,2000,g 10.0,6.0
# From MPEC 2022-HC2
8P/Tuttle,e,54.9146,270.1989,207.4827,5.705100,0.0723285,0.82017753,21.3567,06/19.0/2022,2000,g  8.0,8.0
# From MPEC 2022-L66
9P/Tempel,e,10.4698,68.7131,179.3606,3.146249,0.1766096,0.50916806,18.7267,06/19.0/2022,2000,g  5.5,10.0
# From MPEC 2022-HC2
10P/Tempel,e,12.0387,117.8114,195.5087,3.060996,0.1840390,0.53838976,83.1446,06/19.0/2022,2000,g  5.0,10.0
# From MPEC 2022-K19
11P/Tempel-Swift-LINEAR,e,14.4239,238.8866,167.9706,3.283783,0.1656313,0.57729575,94.3474,06/19.0/2022,2000,g 17.0,4.0
# From MPC xxxxx
12P/Pons-Brooks,e,74.1663,255.8135,198.9815,17.16735,0.0138564,0.95446921,350.6852,06/19.0/2022,2000,g 12.7,4.0
# From  27, 604
13P/Olbers,e,44.6171,85.9416,64.3926,16.77556,0.0143446,0.92994350,349.3407,06/19.0/2022,2000,g  5.0,6.0
# From MPEC 2021-F20
14P/Wolf,e,27.9235,202.0423,159.0674,4.258212,0.1121665,0.35718561,185.9901,06/19.0/2022,2000,g  5.5,12.0
# From MPEC 2022-ED3
15P/Finlay,e,6.7980,13.7093,347.8478,3.507014,0.1500714,0.71706841,51.1008,06/19.0/2022,2000,g 12.0,4.0
# From MPEC 2022-C56
16P/Brooks,e,3.0117,138.8697,245.2151,3.657668,0.1408957,0.48641315,60.1133,06/19.0/2022,2000,g  7.5,10.0
# From MPEC 2022-ED3
17P/Holmes,e,19.0315,326.6229,24.5196,3.636655,0.1421186,0.42762142,68.7962,06/19.0/2022,2000,g 10.0,6.0
# From MPEC 2022-L66
19P/Borrelly,e,29.3041,74.2452,351.9196,3.605453,0.1439675,0.63769381,19.7483,06/19.0/2022,2000,g  4.5,10.0
# From MPEC 2021-F20
21P/Giacobini-Zinner,e,32.0546,195.3449,172.8762,3.495282,0.1508276,0.71120425,207.6303,06/19.0/2022,2000,g 11.4,4.0
# From MPEC 2022-L66
22P/Kopff,e,4.7420,120.8304,163.0307,3.441391,0.1543843,0.54889788,14.3355,06/19.0/2022,2000,g  3.0,10.4
# From MPC 14747
23P/Brorsen-Metcalf,e,19.1770,312.2491,128.9540,16.94575,0.0141290,0.97178907,0.0000,08/05.4748/1989,2000,g 10.0,6.0
# From MPC110085
24P/Schaumasse,e,11.5102,78.4074,58.3967,4.054489,0.1207258,0.70775734,203.0177,06/19.0/2022,2000,g  6.5,14.0
# From MPEC 2022-K19
26P/Grigg-Skjellerup,e,22.4319,211.5387,2.1582,3.014844,0.1882811,0.64032820,255.5989,06/19.0/2022,2000,g 12.0,16.0
# From MPC 78188
27P/Crommelin,e,29.2937,250.6402,195.8917,9.182328,0.0354221,0.91866910,141.1057,06/19.0/2022,2000,g 12.0,8.0
# From MPEC 2022-F14
